satname,norad_id,inclination_deg,eccentricity,mean_motion_rev_per_day,perigee_km,apogee_km,l1,l2
STARLINK-1255,45399,53.0428,0.000376,15.48609343,418.23693784495845,423.34973345736853,1 45399U 20019AR  26051.79737548  .00078083  00000+0  14323-2 0  9996,2 45399  53.0428 183.8326 0003760 192.9234 167.1678 15.48609343327811
STARLINK-1260,45404,53.1618,0.0001157,15.30182254,474.4751173236564,476.06099525368154,1 45404U 20019AW  26051.71589453 -.00000308  00000+0  17179-5 0  9996,2 45404  53.1618 208.0780 0001157  86.8337 273.2796 15.30182254327376
STARLINK-1263,45405,53.1614,0.0001154,15.30193852,474.44254735340655,476.0243052477972,1 45405U 20019AX  26051.70430551  .00001356  00000+0  57908-4 0  9996,2 45405  53.1614 208.1636 0001154  77.9972 282.1158 15.30193852327374
STARLINK-1265,45406,53.1613,0.000109,15.30211804,474.43281349564404,475.9268365634998,1 45406U 20019AY  26051.71904251  .00002893  00000+0  10972-3 0  9997,2 45406  53.1613 208.1725 0001090  89.0499 271.0627 15.30211804327376
STARLINK-1278,45408,53.047,0.0003329,15.52240942,407.9249155717953,412.44458019153535,1 45408U 20019BA  26051.73869620  .00093063  00000+0  14969-2 0  9999,2 45408  53.0470 212.2337 0003329 137.6073 222.5194 15.52240942327322
STARLINK-1296,45412,53.1615,0.0001079,15.30200632,474.4737058972132,475.95265886657126,1 45412U 20019BE  26051.71272300  .00001898  00000+0  76185-4 0  9990,2 45412  53.1615 208.1044 0001079  88.4797 271.6327 15.30200632327370
STARLINK-1298,45413,53.0391,0.0007163,15.87615713,304.1796647135552,313.7596136848715,1 45413U 20019BF  26051.91668981  .00136081  00000+0  49394-3 0  9991,2 45413  53.0391 139.5041 0007163 305.0997  99.2215 15.87615713  5774
STARLINK-1309,45414,53.0698,0.0001608,15.51453546,411.3894349458633,413.5732978124897,1 45414U 20019BG  26051.70316817  .00086131  00000+0  14270-2 0  9991,2 45414  53.0698 205.4563 0001608 346.2110  13.8855 15.51453546327391
STARLINK-1316,45415,53.1619,0.0001405,15.30186635,474.292073618205,476.217876763234,1 45415U 20019BH  26051.69272433 -.00000900  00000+0 -18257-4 0  9998,2 45415  53.1619 208.2502 0001405  88.5214 271.5948 15.30186635327391
STARLINK-1318,45416,53.0306,0.0007876,16.03091118,260.631392421139,271.0970231236224,1 45416U 20019BJ  26051.41829295  .00639512  20303-3  10188-2 0  9993,2 45416  53.0306 127.2452 0007876 355.0273   5.0678 16.03091118328486
STARLINK-1286,45417,53.05,0.0001833,15.49486272,416.98209159133785,419.4736389509462,1 45417U 20019BK  26051.71451341  .00032268  00000+0  58216-3 0  9998,2 45417  53.0500 212.1972 0001833  80.8863 279.2352 15.49486272327592
STARLINK-1308,45419,53.0649,0.0001345,15.47296413,423.72389036425284,425.5538370715931,1 45419U 20019BM  26051.91668981  .01125135  00000+0  19847-1 0  9994,2 45419  53.0649 232.5230 0001345  90.6179 293.5607 15.47296413  5856
STARLINK-1329,45531,53.051,0.0002885,15.52674548,406.96280057269814,410.878932961823,1 45531U 20025A   26051.79556368  .00098472  00000+0  15580-2 0  9990,2 45531  53.0510 162.9508 0002885 211.8276 148.2559 15.52674548322823
STARLINK-1338,45532,53.0514,0.0004189,15.51388094,409.8276893508937,415.51702943219334,1 45532U 20025B   26051.58385502  .00080925  00000+0  13449-2 0  9994,2 45532  53.0514 167.1798 0004189 266.7720  93.2809 15.51388094322743
STARLINK-1350,45535,53.0717,0.0001287,15.35609231,458.23155566610603,459.991463432465,1 45535U 20025E   26051.67635821  .00008991  00000+0  26656-3 0  9997,2 45535  53.0717 113.0154 0001287  56.4529 303.6596 15.35609231323545
STARLINK-1362,45538,53.1578,0.0002062,15.29351482,476.33607867654155,479.16344637740895,1 45538U 20025H   26051.67296379  .00000009  00000+0  12680-4 0  9996,2 45538  53.1578 180.0292 0002062  46.9427 313.1746 15.29351482322574
STARLINK-1368,45540,53.1569,0.0001552,15.30039396,474.6309312884996,476.7583606314065,1 45540U 20025K   26051.48776578  .00060788  00000+0  20579-2 0  9996,2 45540  53.1569 181.2302 0001552  89.9636 270.1543 15.30039396322536
STARLINK-1371,45542,53.0521,0.0002569,15.44078541,432.3368830929412,435.83700375507124,1 45542U 20025M   26051.54671758  .00052234  00000+0  11265-2 0  9998,2 45542  53.0521 171.1273 0002569 221.2431 138.8381 15.44078541322689
STARLINK-1372,45543,53.1622,0.0001342,15.30190881,474.3225737431394,476.1620207465194,1 45543U 20025N   26051.66044456  .00000186  00000+0  18413-4 0  9994,2 45543  53.1622 180.1192 0001342  83.4891 276.6263 15.30190881321663
STARLINK-1373,45544,53.0524,0.0004118,15.47112971,422.37498769980084,427.97819677436746,1 45544U 20025P   26051.53646302  .00027498  00000+0  54026-3 0  9993,2 45544  53.0524 171.1760 0004118 287.5470  72.5086 15.47112971322680
STARLINK-1294,45551,53.028,0.0008895,15.97434882,275.6146788337628,287.4622414773803,1 45551U 20025W   26051.91668981  .00644136  19005-3  14196-2 0  9996,2 45551  53.0280  61.0024 0008895  48.4279 238.0775 15.97434882  5847
STARLINK-1327,45555,53.0492,0.0004243,15.50537734,412.27259031600715,418.03737789371826,1 45555U 20025AA  26051.58953178  .00080534  00000+0  13796-2 0  9990,2 45555  53.0492 148.9551 0004243 347.4691  12.6211 15.50537734322997
STARLINK-1356,45564,53.0524,0.0004711,15.42907153,434.323576024678,440.74530165435226,1 45564U 20025AK  26051.57432973  .00030585  00000+0  69176-3 0  9999,2 45564  53.0524 155.2014 0004711 333.3232  26.7530 15.42907153322901
STARLINK-1357,45565,53.0552,0.0002166,15.51897396,409.71597118059617,412.65710613754254,1 45565U 20025AL  26051.40974260  .00061312  00000+0  10051-2 0  9991,2 45565  53.0552 121.3694 0002166 350.4094   9.6873 15.51897396323378
STARLINK-1361,45567,53.052,0.0006649,15.44677365,427.7979592311085,436.85451324265705,1 45567U 20025AN  26051.75271455  .00081032  00000+0  17002-2 0  9991,2 45567  53.0520 154.6938 0006649 328.7181  31.3428 15.44677365322933
STARLINK-1363,45568,53.0465,0.0008129,15.72930046,345.05820291699365,355.9976663677344,1 45568U 20025AP  26051.91668981  .00112202  00000+0  80095-3 0  9991,2 45568  53.0465 121.2419 0008129 358.2274 217.0555 15.72930046  5955
STARLINK-1366,45569,53.0468,0.0007825,15.72402894,346.76536142730583,357.2980754716782,1 45569U 20025AQ  26051.91668981  .00038882  00000+0  28933-3 0  9996,2 45569  53.0468 121.9307 0007825 353.2295 178.3846 15.72402894  5959
STARLINK-1376,45570,53.1593,0.0001383,15.29346172,476.8174606053699,478.71380327336374,1 45570U 20025AR  26051.53207493  .00001619  00000+0  68463-4 0  9994,2 45570  53.1593 157.3975 0001383  79.8538 280.2618 15.29346172322870
STARLINK-1320,45572,53.0492,0.0008459,15.65029836,367.4420367227067,378.8638690650123,1 45572U 20025AT  26051.46013072  .00089477  00000+0  88760-3 0  9995,2 45572  53.0492  70.5463 0008459 350.9852   9.1010 15.65029836324107
STARLINK-1321,45573,53.0503,0.0002822,15.45334874,428.47292133313476,432.3156563925686,1 45573U 20025AU  26051.44162116  .00055390  00000+0  11436-2 0  9990,2 45573  53.0503 140.8487 0002822 330.4083  29.6763 15.45334874322799
STARLINK-1331,45578,53.0544,0.0002312,15.45387235,428.6663994552828,431.81459320958584,1 45578U 20025AZ  26051.83668245  .00067935  00000+0  13959-2 0  9992,2 45578  53.0544 145.6275 0002312  36.3104 323.8058 15.45387235323074
STARLINK-1333,45580,53.1597,0.0001149,15.30219295,474.3700150993409,475.94490216593476,1 45580U 20025BB  26051.58087552  .00006785  00000+0  24086-3 0  9993,2 45580  53.1597 157.2762 0001149  93.7486 266.3646 15.30219295322889
STARLINK-1335,45581,53.0556,0.0001816,15.06397742,545.9608338368344,548.4761229465848,1 45581U 20025BC  26051.54597905  .00000260  00000+0  36343-4 0  9990,2 45581  53.0556 153.5852 0001816  62.8580 297.2594 15.06397742322923
STARLINK-1337,45582,53.0539,0.000255,15.55010477,400.3932081056855,403.85114028452426,1 45582U 20025BD  26051.73466487  .00086423  00000+0  12589-2 0  9991,2 45582  53.0539 143.9188 0002550  35.1108 325.0070 15.55010477323072
STARLINK-1347,45586,53.0468,0.0005392,15.50618764,411.2555039092267,418.581134765599,1 45586U 20025BH  26051.42656920  .00066282  00000+0  11354-2 0  9994,2 45586  53.0468 112.6116 0005392 340.5888  19.4914 15.50618764323480
STARLINK-1364,45589,53.0528,0.0005642,15.46419135,423.3718364289916,431.05099157935365,1 45589U 20025BL  26051.51301292  .00054221  00000+0  10786-2 0  9994,2 45589  53.0528 145.3601 0005642 350.6078   9.4822 15.46419135323037
STARLINK-1365,45590,53.0523,0.0001719,15.43481382,434.6725654232596,437.0152120528073,1 45590U 20025BM  26051.91668981  .00020169  00000+0  45133-3 0  9990,2 45590  53.0523 173.3211 0001719 332.8078  88.0836 15.43481382  5850
STARLINK-1443,45660,53.0733,0.0002061,15.119508,528.8274056380742,531.6750432641929,1 45660U 20035D   26051.91668981  .00047094  00000+0  27145-2 0  9997,2 45660  53.0733 141.8703 0002061  48.3245  44.4843 15.11950800  5780
STARLINK-1446,45663,53.0239,0.0001228,15.42088262,439.10983644698535,440.7843579012515,1 45663U 20035G   26051.44636902  .00013846  00000+0  32779-3 0  9994,2 45663  53.0239  81.2336 0001228 188.7281 171.3702 15.42088262317010
STARLINK-1448,45665,53.0522,0.000589,15.48864001,416.04394899843373,424.0522110226857,1 45665U 20035J   26051.69766269  .00067205  00000+0  12242-2 0  9993,2 45665  53.0522 134.3210 0005890  13.3493 346.7669 15.48864001316282
STARLINK-1451,45668,53.0539,7.47e-05,15.0913895,538.3130718395687,539.3464666748969,1 45668U 20035M   26051.40060098  .00017151  00000+0  10841-2 0  9990,2 45668  53.0539 144.0591 0000747 247.9723 112.1188 15.09138950316139
STARLINK-1452,45669,53.0327,0.0007908,15.42149567,434.3748053122681,445.15800133496487,1 45669U 20035N   26051.52124682  .00064381  00000+0  14755-2 0  9999,2 45669  53.0327 103.3429 0007908 346.3188  13.7601 15.42149567316711
STARLINK-1453,45670,53.048,0.0008249,15.49243506,413.3309319404116,424.5447460097521,1 45670U 20035P   26051.91668981  .00156885  00000+0  27759-2 0  9998,2 45670  53.0480  93.8798 0008249 339.1002 208.2259 15.49243506  5887
